OBJECT_NAME,OBJECT_ID,EPOCH,MEAN_MOTION,ECCENTRICITY,INCLINATION,RA_OF_ASC_NODE,ARG_OF_PERICENTER,MEAN_ANOMALY,EPHEMERIS_TYPE,CLASSIFICATION_TYPE,NORAD_CAT_ID,ELEMENT_SET_NO,REV_AT_EPOCH,BSTAR,MEAN_MOTION_DOT,MEAN_MOTION_DDOT
ONEWEB-0535,2022-138AL,2026-06-06T16:37:02.404416,13.19724336,.00021602,87.9169,307.0494,97.6075,262.5304,0,U,54147,999,17545,.16260901E-3,.78E-6,0
ONEWEB-0536,2022-138AM,2026-06-07T01:38:07.520640,13.20768655,.0002729,87.9179,276.4757,116.2477,243.8937,0,U,54148,999,17796,.10083E-2,.423E-5,0
ONEWEB-0527,2022-166A,2026-06-07T12:00:04.000320,13.20215092,.0002009,87.9244,245.9237,102.2460,329.1503,0,U,54642,999,524,-.6178E-2,-.2478E-4,0
ONEWEB-0528,2022-166B,2026-06-07T11:42:33.009984,13.21669200,.0001805,87.9256,245.9291,101.3336,258.8000,0,U,54643,999,17026,.32176E-3,.146E-5,0
ONEWEB-0539,2022-166C,2026-06-07T05:21:42.542784,13.21827137,.000209,87.9263,245.9530,93.4115,266.7258,0,U,54644,999,17022,.28649E-3,.131E-5,0
ONEWEB-0540,2022-166D,2026-06-07T05:31:35.522400,13.21826844,.000206,87.9257,245.9826,96.2727,263.8641,0,U,54645,999,17021,.13957E-3,.71E-6,0
ONEWEB-0542,2022-166E,2026-06-07T05:36:14.220288,13.21827354,.0002104,87.9265,245.9494,91.3386,268.7989,0,U,54646,999,17022,.38692E-4,.29E-6,0
ONEWEB-0545,2022-166F,2026-06-07T12:01:22.644192,13.21827537,.0002297,87.9252,245.9091,88.0541,272.0856,0,U,54647,999,17022,.2289E-3,.108E-5,0
ONEWEB-0580,2022-166G,2026-06-07T11:25:02.269344,13.21827612,.0002346,87.9258,245.9136,92.8451,267.2951,0,U,54648,999,17026,-.46146E-4,-.6E-7,0
ONEWEB-0582,2022-166H,2026-06-07T12:25:36.566112,13.21826413,.000225,87.9263,245.8981,89.8016,270.3376,0,U,54649,999,17024,-.20629E-4,.4E-7,0
ONEWEB-0583,2022-166J,2026-06-07T05:26:32.864064,13.21827297,.0002007,87.9252,245.9790,95.7035,264.4327,0,U,54650,999,17021,.78776E-4,.46E-6,0
ONEWEB-0584,2022-166K,2026-06-07T11:22:36.393312,13.21825184,.0002139,87.9254,245.9156,97.8344,262.3032,0,U,54651,999,17023,.40579E-4,.3E-6,0
ONEWEB-0585,2022-166L,2026-06-07T04:40:31.939104,13.21826391,.0001969,87.9248,245.9574,103.5931,256.5422,0,U,54652,999,17020,.307E-3,.14E-5,0
ONEWEB-0586,2022-166M,2026-06-07T12:15:52.852896,13.21824652,.0002052,87.9257,245.9206,94.7731,265.3638,0,U,54653,999,17024,-.38011E-3,-.144E-5,0
ONEWEB-0587,2022-166N,2026-06-07T12:30:24.945120,13.21828288,.0001834,87.9269,245.8912,109.0345,251.0988,0,U,54654,999,17040,.95806E-4,.53E-6,0
ONEWEB-0589,2022-166P,2026-06-07T04:55:01.583616,13.21825386,.000267,87.9255,245.9677,85.4186,274.7253,0,U,54655,999,17022,-.64632E-3,-.254E-5,0
ONEWEB-0590,2022-166Q,2026-06-07T05:31:11.885952,13.21826644,.0002492,87.9270,245.9518,106.1309,254.0099,0,U,54656,999,17021,.10077E-3,.55E-6,0
ONEWEB-0591,2022-166R,2026-06-07T05:48:21.537216,13.21826096,.0002107,87.9256,245.9648,99.9971,260.1401,0,U,54657,999,17024,.16896E-4,.2E-6,0
ONEWEB-0592,2022-166S,2026-06-07T11:20:12.234048,13.21826481,.000213,87.9260,245.8961,98.8461,261.2914,0,U,54658,999,17015,-.17118E-3,-.58E-6,0
ONEWEB-0593,2022-166T,2026-06-07T04:35:39.621120,13.21827780,.0002024,87.9258,245.9646,94.4269,265.7096,0,U,54659,999,17022,.2208E-3,.104E-5,0
ONEWEB-0594,2022-166U,2026-06-07T12:20:43.560384,13.21824307,.0002,87.9256,245.9169,101.4510,258.6849,0,U,54660,999,17028,.6632E-4,.4E-6,0
ONEWEB-0595,2022-166V,2026-06-07T11:46:50.462976,13.21827139,.0002038,87.9266,245.9013,105.7827,254.3532,0,U,54661,999,17025,.18117E-3,.88E-6,0
ONEWEB-0596,2022-166W,2026-06-07T05:43:30.537696,13.21826588,.0002003,87.9257,245.9636,102.3598,257.7761,0,U,54662,999,17022,.14738E-3,.74E-6,0
ONEWEB-0597,2022-166X,2026-06-07T12:32:52.404864,13.21826673,.000206,87.9257,245.9105,95.8907,264.2462,0,U,54663,999,17026,.44272E-4,.31E-6,0
ONEWEB-0600,2022-166Y,2026-06-07T04:50:10.870080,13.21828625,.000187,87.9258,245.9657,95.3186,264.8161,0,U,54664,999,17019,.31636E-3,.144E-5,0
ONEWEB-0601,2022-166Z,2026-06-07T11:54:05.951808,13.21825734,.0002166,87.9247,245.9230,93.7225,266.4157,0,U,54665,999,17042,.31474E-3,.143E-5,0
ONEWEB-0602,2022-166AA,2026-06-07T05:37:26.387616,13.21826089,.0001857,87.9261,245.9813,93.3578,266.7768,0,U,54666,999,17023,.53246E-4,.35E-6,0
ONEWEB-0603,2022-166AB,2026-06-07T11:12:56.467008,13.21826683,.0002028,87.9265,245.8909,96.1850,263.9515,0,U,54667,999,17019,.14392E-3,.72E-6,0
ONEWEB-0604,2022-166AC,2026-06-07T05:28:58.067040,13.21827535,.0001965,87.9267,245.9541,101.3204,258.8151,0,U,54668,999,17012,.16575E-3,.81E-6,0
ONEWEB-0605,2022-166AD,2026-06-07T12:35:18.210048,13.21824799,.0002584,87.9273,245.9096,94.9186,265.2242,0,U,54669,999,17023,-.44794E-4,-.5E-7,0
ONEWEB-0606,2022-166AE,2026-06-07T05:50:46.539744,13.21826482,.0001922,87.9258,245.9778,104.2033,255.9315,0,U,54670,999,17025,.1423E-3,.72E-6,0
