ONEWEB-0535             
1 54147U 22138AL  26157.69238894  .00000078  00000+0  16261-3 0  9990
2 54147  87.9169 307.0494 0002160  97.6075 262.5304 13.19724336175456
ONEWEB-0536             
1 54148U 22138AM  26158.06814260  .00000423  00000+0  10083-2 0  9999
2 54148  87.9179 276.4757 0002729 116.2477 243.8937 13.20768655177960
ONEWEB-0527             
1 54642U 22166A   26158.50004630 -.00002478  00000+0 -61780-2 0  9994
2 54642  87.9244 245.9237 0002009 102.2460 329.1503 13.20215092  5244
ONEWEB-0528             
1 54643U 22166B   26158.48788206  .00000146  00000+0  32176-3 0  9996
2 54643  87.9256 245.9291 0001805 101.3336 258.8000 13.21669200170263
ONEWEB-0539             
1 54644U 22166C   26158.22340906  .00000131  00000+0  28649-3 0  9994
2 54644  87.9263 245.9530 0002090  93.4115 266.7258 13.21827137170225
ONEWEB-0540             
1 54645U 22166D   26158.23027225  .00000071  00000+0  13957-3 0  9991
2 54645  87.9257 245.9826 0002060  96.2727 263.8641 13.21826844170211
ONEWEB-0542             
1 54646U 22166E   26158.23349792  .00000029  00000+0  38692-4 0  9995
2 54646  87.9265 245.9494 0002104  91.3386 268.7989 13.21827354170225
ONEWEB-0545             
1 54647U 22166F   26158.50095653  .00000108  00000+0  22890-3 0  9990
2 54647  87.9252 245.9091 0002297  88.0541 272.0856 13.21827537170228
ONEWEB-0580             
1 54648U 22166G   26158.47572071 -.00000006  00000+0 -46146-4 0  9991
2 54648  87.9258 245.9136 0002346  92.8451 267.2951 13.21827612170263
ONEWEB-0582             
1 54649U 22166H   26158.51778433  .00000004  00000+0 -20629-4 0  9992
2 54649  87.9263 245.8981 0002250  89.8016 270.3376 13.21826413170246
ONEWEB-0583             
1 54650U 22166J   26158.22676926  .00000046  00000+0  78776-4 0  9997
2 54650  87.9252 245.9790 0002007  95.7035 264.4327 13.21827297170210
ONEWEB-0584             
1 54651U 22166K   26158.47403233  .00000030  00000+0  40579-4 0  9997
2 54651  87.9254 245.9156 0002139  97.8344 262.3032 13.21825184170236
ONEWEB-0585             
1 54652U 22166L   26158.19481411  .00000140  00000+0  30700-3 0  9997
2 54652  87.9248 245.9574 0001969 103.5931 256.5422 13.21826391170207
ONEWEB-0586             
1 54653U 22166M   26158.51102839 -.00000144  00000+0 -38011-3 0  9997
2 54653  87.9257 245.9206 0002052  94.7731 265.3638 13.21824652170242
ONEWEB-0587             
1 54654U 22166N   26158.52112205  .00000053  00000+0  95806-4 0  9990
2 54654  87.9269 245.8912 0001834 109.0345 251.0988 13.21828288170404
ONEWEB-0589             
1 54655U 22166P   26158.20487944 -.00000254  00000+0 -64632-3 0  9998
2 54655  87.9255 245.9677 0002670  85.4186 274.7253 13.21825386170221
ONEWEB-0590             
1 54656U 22166Q   26158.22999868  .00000055  00000+0  10077-3 0  9995
2 54656  87.9270 245.9518 0002492 106.1309 254.0099 13.21826644170219
ONEWEB-0591             
1 54657U 22166R   26158.24191594  .00000020  00000+0  16896-4 0  9996
2 54657  87.9256 245.9648 0002107  99.9971 260.1401 13.21826096170244
ONEWEB-0592             
1 54658U 22166S   26158.47236382 -.00000058  00000+0 -17118-3 0  9997
2 54658  87.9260 245.8961 0002130  98.8461 261.2914 13.21826481170154
ONEWEB-0593             
1 54659U 22166T   26158.19143080  .00000104  00000+0  22080-3 0  9993
2 54659  87.9258 245.9646 0002024  94.4269 265.7096 13.21827780170224
ONEWEB-0594             
1 54660U 22166U   26158.51439306  .00000040  00000+0  66320-4 0  9995
2 54660  87.9256 245.9169 0002000 101.4510 258.6849 13.21824307170281
ONEWEB-0595             
1 54661U 22166V   26158.49086184  .00000088  00000+0  18117-3 0  9997
2 54661  87.9266 245.9013 0002038 105.7827 254.3532 13.21827139170255
ONEWEB-0596             
1 54662U 22166W   26158.23854789  .00000074  00000+0  14738-3 0  9994
2 54662  87.9257 245.9636 0002003 102.3598 257.7761 13.21826588170222
ONEWEB-0597             
1 54663U 22166X   26158.52282876  .00000031  00000+0  44272-4 0  9999
2 54663  87.9257 245.9105 0002060  95.8907 264.2462 13.21826673170267
ONEWEB-0600             
1 54664U 22166Y   26158.20151470  .00000144  00000+0  31636-3 0  9994
2 54664  87.9258 245.9657 0001870  95.3186 264.8161 13.21828625170196
ONEWEB-0601             
1 54665U 22166Z   26158.49590222  .00000143  00000+0  31474-3 0  9997
2 54665  87.9247 245.9230 0002166  93.7225 266.4157 13.21825734170424
ONEWEB-0602             
1 54666U 22166AA  26158.23433319  .00000035  00000+0  53246-4 0  9995
2 54666  87.9261 245.9813 0001857  93.3578 266.7768 13.21826089170235
ONEWEB-0603             
1 54667U 22166AB  26158.46732022  .00000072  00000+0  14392-3 0  9993
2 54667  87.9265 245.8909 0002028  96.1850 263.9515 13.21826683170194
ONEWEB-0604             
1 54668U 22166AC  26158.22844985  .00000081  00000+0  16575-3 0  9995
2 54668  87.9267 245.9541 0001965 101.3204 258.8151 13.21827535170120
ONEWEB-0605             
1 54669U 22166AD  26158.52451632 -.00000005  00000+0 -44794-4 0  9995
2 54669  87.9273 245.9096 0002584  94.9186 265.2242 13.21824799170231
ONEWEB-0606             
1 54670U 22166AE  26158.24359421  .00000072  00000+0  14230-3 0  9992
2 54670  87.9258 245.9778 0001922 104.2033 255.9315 13.21826482170254
